[{"OBJECT_NAME":"JILIN-1","OBJECT_ID":"2015-057D","EPOCH":"2026-03-09T23:20:41.450208","MEAN_MOTION":14.7799363,"ECCENTRICITY":0.00159161,"INCLINATION":97.6518,"RA_OF_ASC_NODE":73.2783,"ARG_OF_PERICENTER":222.7613,"MEAN_ANOMALY":137.2362,"EPHEMERIS_TYPE":0,"CLASSIFICATION_TYPE":"U","NORAD_CAT_ID":40961,"ELEMENT_SET_NO":999,"REV_AT_EPOCH":56095,"BSTAR":0.00014277196,"MEAN_MOTION_DOT":9.83e-6,"MEAN_MOTION_DDOT":0},{"OBJECT_NAME":"CZ-6A DEB","OBJECT_ID":"2024-140MX","EPOCH":"2026-03-09T15:19:50.738016","MEAN_MOTION":14.62257087,"ECCENTRICITY":0.0112091,"INCLINATION":88.9756,"RA_OF_ASC_NODE":280.2221,"ARG_OF_PERICENTER":222.9868,"MEAN_ANOMALY":136.2548,"EPHEMERIS_TYPE":0,"CLASSIFICATION_TYPE":"U","NORAD_CAT_ID":61081,"ELEMENT_SET_NO":999,"REV_AT_EPOCH":8172,"BSTAR":0.00082222,"MEAN_MOTION_DOT":4.553e-5,"MEAN_MOTION_DDOT":0}]
